NORAD_CAT_ID,OBJECT_NAME,OBJECT_TYPE,EPOCH,MEAN_MOTION,ECCENTRICITY,INCLINATION,RA_OF_ASC_NODE,ARG_OF_PERICENTER,MEAN_ANOMALY,BSTAR,MEAN_MOTION_DOT,MEAN_MOTION_DDOT,TLE_LINE0,TLE_LINE1,TLE_LINE2,SEMIMAJOR_AXIS,PERIOD,APOGEE,PERIGEE,DECAYED
49741.0,STARLINK-3244,PAYLOAD,2022-11-05 05:01:10,15.08841882,0.0001932,53.2166,228.0652,46.0631,314.052,2.2307e-05,6.7e-07,0.0,0 STARLINK-3244,1 49741U 21115T   22309.20914442  .00000067  00000-0  22307-4 0  9998,2 49741  53.2166 228.0652 0001932  46.0631 314.0520 15.08841882 51286,6917.875,95.437,541.076,538.403,0.0
49741.0,STARLINK-3244,PAYLOAD,2022-11-06 04:51:59,15.08824046,0.0002221,53.2167,223.5991,45.4097,314.7076,-0.00020426,-3.536e-05,0.0,0 STARLINK-3244,1 49741U 21115T   22310.20277199 -.00003536  00000-0 -20426-3 0  9996,2 49741  53.2167 223.5991 0002221  45.4097 314.7076 15.08824046 52540,6917.929,95.439,541.331,538.258,0.0
49741.0,STARLINK-3244,PAYLOAD,2022-11-06 11:13:31,15.08829765,0.0002157,53.2162,222.4118,44.9009,315.2158,-5.6616e-05,-1.189e-05,0.0,0 STARLINK-3244,1 49741U 21115T   22310.46772689 -.00001189  00000-0 -56616-4 0  9991,2 49741  53.2162 222.4118 0002157  44.9009 315.2158 15.08829765 52583,6917.9119999999975,95.438,541.269,538.284,0.0
49741.0,STARLINK-3244,PAYLOAD,2022-11-07 01:31:59,15.08837535,0.0002152,53.2156,219.7354,44.26600000000001,315.8504,0.00020791,3.022e-05,0.0,0 STARLINK-3244,1 49741U 21115T   22311.06388311  .00003022  00000-0  20791-3 0  9993,2 49741  53.2156 219.7354 0002152  44.2660 315.8504 15.08837535 52673,6917.888000000001,95.438,541.242,538.264,0.0
49741.0,STARLINK-3244,PAYLOAD,2022-11-07 11:04:18,15.08842645,0.0002182,53.2156,217.9512,44.9971,315.1198,0.00028028,4.176e-05,0.0,0 STARLINK-3244,1 49741U 21115T   22311.46132314  .00004176  00000-0  28028-3 0  9999,2 49741  53.2156 217.9512 0002182  44.9971 315.1198 15.08842645 51628,6917.871999999999,95.437,541.247,538.2280000000002,0.0
49741.0,STARLINK-3244,PAYLOAD,2022-11-08 06:08:55,15.08864207,0.0002178,53.2151,214.3827,46.1626,313.9546,0.00056938,8.791e-05,0.0,0 STARLINK-3244,1 49741U 21115T   22312.25619733  .00008791  00000-0  56938-3 0  9990,2 49741  53.2151 214.3827 0002178  46.1626 313.9546 15.08864207 52856,6917.806,95.436,541.178,538.165,0.0
49741.0,STARLINK-3244,PAYLOAD,2022-11-09 02:48:54,15.08890137,0.0002034,53.2148,210.5167,45.3339,314.7818,0.0008175,0.00012764,0.0,0 STARLINK-3244,1 49741U 21115T   22313.11729414  .00012764  00000-0  81750-3 0  9999,2 49741  53.2148 210.5167 0002034  45.3339 314.7818 15.08890137 52986,6917.727,95.434,540.999,538.185,0.0
49741.0,STARLINK-3244,PAYLOAD,2022-11-09 04:24:17,15.08888922,0.0002299,53.2146,210.2191,37.3223,322.7928,0.0007744,0.00012075,0.0,0 STARLINK-3244,1 49741U 21115T   22313.18353297  .00012075  00000-0  77440-3 0  9994,2 49741  53.2146 210.2191 0002299  37.3223 322.7928 15.08888922 51882,6917.731,95.434,541.186,538.005,0.0
49741.0,STARLINK-3244,PAYLOAD,2022-11-09 20:18:10,15.08812126,0.0002069,53.215,207.2456,47.889,312.2277,-0.00082434,-0.00013374,0.0,0 STARLINK-3244,1 49741U 21115T   22313.84595289 -.00013374  00000-0 -82434-3 0  9990,2 49741  53.2150 207.2456 0002069  47.8890 312.2277 15.08812126 53097,6917.965999999999,95.439,541.262,538.399,0.0
49741.0,STARLINK-3244,PAYLOAD,2022-11-09 23:28:57,15.08807745,0.000219,53.2149,206.6514,41.4636,318.6522,-0.00052536,-8.632e-05,0.0,0 STARLINK-3244,1 49741U 21115T   22313.97843757 -.00008632  00000-0 -52536-3 0  9991,2 49741  53.2149 206.6514 0002190  41.4636 318.6522 15.08807745 52000,6917.979,95.44,541.359,538.3290000000002,0.0
49741.0,STARLINK-3244,PAYLOAD,2022-11-10 16:58:13,15.08810515,0.0002223,53.2151,203.3807,43.006,317.1106,0.00075139,0.00011681,0.0,0 STARLINK-3244,1 49741U 21115T   22314.70709782  .00011681  00000-0  75139-3 0  9992,2 49741  53.2151 203.3807 0002223  43.0060 317.1106 15.08810515 53224,6917.971,95.439,541.373,538.298,0.0
49741.0,STARLINK-3244,PAYLOAD,2022-11-10 20:08:59,15.08806968,0.0002221,53.2156,202.785,45.5811,314.5363,0.00048905,7.497e-05,0.0,0 STARLINK-3244,1 49741U 21115T   22314.83958140  .00007497  00000-0  48905-3 0  9991,2 49741  53.2156 202.7850 0002221  45.5811 314.5363 15.08806968 52131,6917.981,95.44,541.383,538.31,0.0
49741.0,STARLINK-3244,PAYLOAD,2022-11-11 02:30:32,15.08805711,0.0002217,53.2153,201.5957,41.6537,318.4624,0.00037125,5.62e-05,0.0,0 STARLINK-3244,1 49741U 21115T   22315.10454854  .00005620  00000-0  37125-3 0  9993,2 49741  53.2153 201.5957 0002217  41.6537 318.4624 15.08805711 53285,6917.985,95.44,541.384,538.316,0.0
49741.0,STARLINK-3244,PAYLOAD,2022-11-11 19:59:46,15.088484,0.0002391,53.2145,198.3242,26.5692,333.5422,0.00089519,0.00013991,0.0,0 STARLINK-3244,1 49741U 21115T   22315.83318161  .00013991  00000-0  89519-3 0  9997,2 49741  53.2145 198.3242 0002391  26.5692 333.5422 15.08848400 53391,6917.855,95.437,541.374,538.066,0.0
49741.0,STARLINK-3244,PAYLOAD,2022-11-11 21:35:09,15.08852019,0.000237,53.2142,198.024,35.1377,324.9771,0.0009046,0.00014143,0.0,0 STARLINK-3244,1 49741U 21115T   22315.89941980  .00014143  00000-0  90460-3 0  9991,2 49741  53.2142 198.0240 0002370  35.1377 324.9771 15.08852019 52296,6917.844,95.437,541.3480000000002,538.069,0.0
49741.0,STARLINK-3244,PAYLOAD,2022-11-12 02:21:18,15.08893896,0.0002174,53.215,197.1351,33.7038,326.4092,0.0020188,0.00032036,0.0,0 STARLINK-3244,1 49741U 21115T   22316.09813275  .00032036  00000-0  20188-2 0  9999,2 49741  53.2150 197.1351 0002174  33.7038 326.4092 15.08893896 53436,6917.715999999999,95.434,541.085,538.077,0.0
49741.0,STARLINK-3244,PAYLOAD,2022-11-12 21:25:54,15.08852509,0.000203,53.2146,193.5661,39.6466,320.4675,-0.00063244,-0.00010343,0.0,0 STARLINK-3244,1 49741U 21115T   22316.89299653 -.00010343  00000-0 -63244-3 0  9995,2 49741  53.2146 193.5661 0002030  39.6466 320.4675 15.08852509 52443,6917.842,95.437,541.111,538.303,0.0
49741.0,STARLINK-3244,PAYLOAD,2022-11-13 02:12:03,15.08847553,0.0002165,53.2149,192.6749,36.5542,323.5598,-0.00071802,-0.000117,0.0,0 STARLINK-3244,1 49741U 21115T   22317.09171225 -.00011700  00000-0 -71802-3 0  9999,2 49741  53.2149 192.6749 0002165  36.5542 323.5598 15.08847553 53580,6917.857,95.437,541.22,538.225,0.0
49741.0,STARLINK-3244,PAYLOAD,2022-11-13 06:58:13,15.0884532,0.0002155,53.2141,191.7828,36.6003,323.5137,-0.00012208,-2.231e-05,0.0,0 STARLINK-3244,1 49741U 21115T   22317.29043302 -.00002231  00000-0 -12208-3 0  9999,2 49741  53.2141 191.7828 0002155  36.6003 323.5137 15.08845320 52502,6917.864000000001,95.437,541.22,538.238,0.0
49741.0,STARLINK-3244,PAYLOAD,2022-11-14 02:02:52,15.08828799,0.000195,53.2144,188.2161,36.144,323.9684,0.0010893,0.00017085,0.0,0 STARLINK-3244,1 49741U 21115T   22318.08532895  .00017085  00000-0  10893-2 0  9995,2 49741  53.2144 188.2161 0001950  36.1440 323.9684 15.08828799 52623,6917.915,95.438,541.129,538.431,0.0
49741.0,STARLINK-3244,PAYLOAD,2022-11-14 14:45:57,15.08834359,0.0002118,53.2141,185.8357,37.5975,322.5164,0.00073475,0.00011423,0.0,0 STARLINK-3244,1 49741U 21115T   22318.61525384  .00011423  00000-0  73475-3 0  9995,2 49741  53.2141 185.8357 0002118  37.5975 322.5164 15.08834359 52701,6917.898,95.438,541.2280000000002,538.297,0.0
49741.0,STARLINK-3244,PAYLOAD,2022-11-14 22:42:53,15.08834625,0.0002202,53.2148,184.3489,40.0306,320.0849,0.00039373,5.983e-05,0.0,0 STARLINK-3244,1 49741U 21115T   22318.94645435  .00005983  00000-0  39373-3 0  9994,2 49741  53.2148 184.3489 0002202  40.0306 320.0849 15.08834625 53866,6917.897,95.438,541.285,538.238,0.0
49741.0,STARLINK-3244,PAYLOAD,2022-11-15 08:15:12,15.08842589,0.0002202,53.2148,182.5646,40.4615,319.6541,0.00042469,6.478e-05,0.0,0 STARLINK-3244,1 49741U 21115T   22319.34389260  .00006478  00000-0  42469-3 0  9990,2 49741  53.2148 182.5646 0002202  40.4615 319.6541 15.08842589 52813,6917.871999999999,95.437,541.261,538.214,0.0
49741.0,STARLINK-3244,PAYLOAD,2022-11-15 20:58:17,15.08833599,0.0002093,53.215,180.1853,40.6337,319.4811,0.00012831,1.754e-05,0.0,0 STARLINK-3244,1 49741U 21115T   22319.87381714  .00001754  00000-0  12831-3 0  9996,2 49741  53.2150 180.1853 0002093  40.6337 319.4811 15.08833599 54003,6917.9,95.438,541.2130000000002,538.317,0.0
49741.0,STARLINK-3244,PAYLOAD,2022-11-16 00:09:04,15.08832754,0.0001965,53.2155,179.5892,43.8932,316.2216,9.6403e-05,1.246e-05,0.0,0 STARLINK-3244,1 49741U 21115T   22320.00629769  .00001246  00000-0  96403-4 0  9992,2 49741  53.2155 179.5892 0001965  43.8932 316.2216 15.08832754 52910,6917.903,95.438,541.127,538.408,0.0
49741.0,STARLINK-3244,PAYLOAD,2022-11-16 20:49:04,15.08845332,0.0002155,53.2164,175.7245,41.2,318.9154,0.00012172,1.65e-05,0.0,0 STARLINK-3244,1 49741U 21115T   22320.86741348  .00001650  00000-0  12172-3 0  9993,2 49741  53.2164 175.7245 0002155  41.2000 318.9154 15.08845332 53041,6917.864000000001,95.437,541.22,538.238,0.0
49741.0,STARLINK-3244,PAYLOAD,2022-11-17 01:35:13,15.0884863,0.0002148,53.2172,174.8323,41.8187,318.2968,0.00011008,1.465e-05,0.0,0 STARLINK-3244,1 49741U 21115T   22321.06613005  .00001465  00000-0  11008-3 0  9995,2 49741  53.2172 174.8323 0002148  41.8187 318.2968 15.08848630 54187,6917.854,95.437,541.205,538.2330000000002,0.0
49741.0,STARLINK-3244,PAYLOAD,2022-11-17 17:29:05,15.08838794,0.000218,53.2172,171.8593,42.7339,317.3823,9.5084e-05,1.225e-05,0.0,0 STARLINK-3244,1 49741U 21115T   22321.72853648  .00001225  00000-0  95084-4 0  9998,2 49741  53.2172 171.8593 0002180  42.7339 317.3823 15.08838794 54289,6917.884,95.438,541.257,538.241,0.0
49741.0,STARLINK-3244,PAYLOAD,2022-11-17 19:04:28,15.08836984,0.0002166,53.2173,171.5616,42.8822,317.2339,7.3543e-05,8.82e-06,0.0,0 STARLINK-3244,1 49741U 21115T   22321.79477729  .00000882  00000-0  73543-4 0  9991,2 49741  53.2173 171.5616 0002166  42.8822 317.2339 15.08836984 53183,6917.89,95.438,541.253,538.256,0.0
